{
    "links": {
        "self": "http://www.neowsapp.com/rest/v1/neo/3785693?api_key=iIulBulltgU6a56xZRHN4H3l9WmuAYTsLGpBGhQ2"
    },
    "id": "3785693",
    "neo_reference_id": "3785693",
    "name": "(2017 TP2)",
    "designation": "2017 TP2",
    "nasa_jpl_url": "http://ssd.jpl.nasa.gov/sbdb.cgi?sstr=3785693",
    "absolute_magnitude_h": 24.5,
    "estimated_diameter": {
        "kilometers": {
            "estimated_diameter_min": 0.0334622374,
            "estimated_diameter_max": 0.0748238376
        },
        "meters": {
            "estimated_diameter_min": 33.4622374455,
            "estimated_diameter_max": 74.8238376074
        },
        "miles": {
            "estimated_diameter_min": 0.0207924639,
            "estimated_diameter_max": 0.0464933628
        },
        "feet": {
            "estimated_diameter_min": 109.7842471007,
            "estimated_diameter_max": 245.4850393757
        }
    },
    "is_potentially_hazardous_asteroid": false,
    "close_approach_data": [
        {
            "close_approach_date": "2009-11-23",
            "close_approach_date_full": "2009-Nov-23 04:50",
            "epoch_date_close_approach": 1258951800000,
            "relative_velocity": {
                "kilometers_per_second": "17.0701871608",
                "kilometers_per_hour": "61452.6737787533",
                "miles_per_hour": "38184.3016599148"
            },
            "miss_distance": {
                "astronomical": "0.3708350298",
                "lunar": "144.2548265922",
                "kilometers": "55476130.579466526",
                "miles": "34471269.0880930188"
            },
            "orbiting_body": "Earth"
        },
        {
            "close_approach_date": "2013-11-07",
            "close_approach_date_full": "2013-Nov-07 01:20",
            "epoch_date_close_approach": 1383787200000,
            "relative_velocity": {
                "kilometers_per_second": "12.1737859826",
                "kilometers_per_hour": "43825.629537355",
                "miles_per_hour": "27231.5418644748"
            },
            "miss_distance": {
                "astronomical": "0.2108807789",
                "lunar": "82.0326229921",
                "kilometers": "31547315.347380943",
                "miles": "19602592.7725572934"
            },
            "orbiting_body": "Earth"
        },
        {
            "close_approach_date": "2017-10-08",
            "close_approach_date_full": "2017-Oct-08 15:00",
            "epoch_date_close_approach": 1507474800000,
            "relative_velocity": {
                "kilometers_per_second": "9.6294730605",
                "kilometers_per_hour": "34666.1030178819",
                "miles_per_hour": "21540.1682890833"
            },
            "miss_distance": {
                "astronomical": "0.0497292961",
                "lunar": "19.3446961829",
                "kilometers": "7439396.773159307",
                "miles": "4622626.8007881566"
            },
            "orbiting_body": "Earth"
        },
        {
            "close_approach_date": "2021-09-14",
            "close_approach_date_full": "2021-Sep-14 10:29",
            "epoch_date_close_approach": 1631615340000,
            "relative_velocity": {
                "kilometers_per_second": "13.0218710297",
                "kilometers_per_hour": "46878.7357069142",
                "miles_per_hour": "29128.6233063324"
            },
            "miss_distance": {
                "astronomical": "0.1682876612",
                "lunar": "65.4639002068",
                "kilometers": "25175475.662801644",
                "miles": "15643315.1867009272"
            },
            "orbiting_body": "Earth"
        },
        {
            "close_approach_date": "2025-08-31",
            "close_approach_date_full": "2025-Aug-31 23:02",
            "epoch_date_close_approach": 1756681320000,
            "relative_velocity": {
                "kilometers_per_second": "17.6346066914",
                "kilometers_per_hour": "63484.5840890191",
                "miles_per_hour": "39446.8517079797"
            },
            "miss_distance": {
                "astronomical": "0.3373755505",
                "lunar": "131.2390891445",
                "kilometers": "50470663.744877435",
                "miles": "31361016.221421203"
            },
            "orbiting_body": "Earth"
        }
    ],
    "orbital_data": {
        "orbit_id": "5",
        "orbit_determination_date": "2017-11-25 06:18:39",
        "first_observation_date": "2017-10-11",
        "last_observation_date": "2017-11-23",
        "data_arc_in_days": 43,
        "observations_used": 30,
        "orbit_uncertainty": "7",
        "minimum_orbit_intersection": ".0442469",
        "jupiter_tisserand_invariant": "3.176",
        "epoch_osculation": "2459000.5",
        "eccentricity": ".5879446751024011",
        "semi_major_axis": "2.506945370964294",
        "inclination": "11.4637527250204",
        "ascending_node_longitude": "7.546126669946537",
        "orbital_period": "1449.825494494749",
        "perihelion_distance": "1.033000189333224",
        "perihelion_argument": "16.00804804630226",
        "aphelion_distance": "3.980890552595365",
        "perihelion_time": "2459492.352961811149",
        "mean_anomaly": "237.8700837277526",
        "mean_motion": ".2483057453238237",
        "equinox": "J2000",
        "orbit_class": {
            "orbit_class_type": "AMO",
            "orbit_class_description": "Near-Earth asteroid orbits similar to that of 1221 Amor",
            "orbit_class_range": "1.017 AU < q (perihelion) < 1.3 AU"
        }
    },
    "is_sentry_object": false
}